{"epoch":1784762836,"count":18316,"objects":[{"id":"20580","name":"HST","type":"PAYLOAD","l1":"1 20580U 90037B   26203.21405009  .00005689  00000-0  17638-3 0  9994","l2":"2 20580  28.4723 201.1073 0002036 171.5650 188.4980 15.31110914793949"},{"id":"23802","name":"POLAR","type":"PAYLOAD","l1":"1 23802U 96013A   26202.69774953  .00000193  00000-0  00000-0 0  9999","l2":"2 23802  79.9018 226.6420 6505013 207.8918  92.1658  1.29846001145303"},{"id":"25560","name":"SWAS","type":"PAYLOAD","l1":"1 25560U 98071A   26203.19817026  .00003257  00000-0  20760-3 0  9995","l2":"2 25560  69.8955 137.2213 0007328 222.4214 137.6385 15.09779260502554"},{"id":"25867","name":"CXO","type":"PAYLOAD","l1":"1 25867U 99040B   26206.40147406  .00000689  00000-0  00000-0 0  9995","l2":"2 25867  56.6765 115.6641 7773461 309.9148   0.5404  0.37796798 17465"},{"id":"25989","name":"XMM","type":"PAYLOAD","l1":"1 25989U 99066A   26205.24911900  .00000048  00000-0  00000-0 0  9996","l2":"2 25989  64.2866 282.5076 4663791  64.2318   0.0628  0.50127611 23180"},{"id":"25994","name":"TERRA","type":"PAYLOAD","l1":"1 25994U 99068A   26203.57942042  .00000260  00000-0  61837-4 0  9994","l2":"2 25994  97.9436 251.7188 0003642 108.3723  57.1543 14.61127651414772"},{"id":"26410","name":"CLUSTER II-FM7","type":"PAYLOAD","l1":"1 26410U 00041A   26201.60182196  .00010308 -30415-5  00000-0 0  9993","l2":"2 26410 149.8020  56.9135 9091714 274.4939 359.4480  0.44850593 20460"},{"id":"26464","name":"CLUSTER II-FM8","type":"PAYLOAD","l1":"1 26464U 00045B   26202.20481173  .00010744 -27323-5  00000-0 0  9998","l2":"2 26464 149.9880  58.2030 9095436 275.6486   2.0940  0.44419737 20461"},{"id":"26702","name":"ODIN","type":"PAYLOAD","l1":"1 26702U 01007A   26203.09632161  .00602498  15103-3  16233-2 0  9995","l2":"2 26702  97.3694 246.6856 0004575 165.2192 194.9218 15.94340343394928"},{"id":"26998","name":"TIMED","type":"PAYLOAD","l1":"1 26998U 01055B   26203.33322503  .00000927  00000-0  87586-4 0  9995","l2":"2 26998  74.0674 164.2490 0002379 292.6522  67.4411 14.95355508336076"},{"id":"27640","name":"CORIOLIS","type":"PAYLOAD","l1":"1 27640U 03001A   26203.00681337  .00000087  00000-0  61467-4 0  9997","l2":"2 27640  98.7139 209.3614 0015134 110.9935 249.2862 14.19953324219168"},{"id":"27651","name":"SORCE","type":"PAYLOAD","l1":"1 27651U 03004A   26203.60250718  .00002065  00000-0  15774-3 0  9990","l2":"2 27651  39.9919  59.5911 0018581 304.1435  55.7597 15.03869004277231"},{"id":"27843","name":"MOST","type":"PAYLOAD","l1":"1 27843U 03031D   26203.47999572  .00000047  00000-0  41340-4 0  9993","l2":"2 27843  98.7056 210.7147 0010495 145.0344 215.1524 14.21328799195723"},{"id":"27858","name":"SCISAT 1","type":"PAYLOAD","l1":"1 27858U 03036A   26203.13801118  .00000466  00000-0  64174-4 0  9990","l2":"2 27858  73.9301 101.9005 0007006 168.2411 191.8931 14.81484604236628"},{"id":"28485","name":"SWIFT","type":"PAYLOAD","l1":"1 28485U 04047A   26203.51172162  .00065667  00000-0  47233-3 0  9992","l2":"2 28485  20.5517 271.7026 0002649 103.4951 256.5791 15.71818487192421"},{"id":"29479","name":"HINODE (SOLAR B)","type":"PAYLOAD","l1":"1 29479U 06041A   26203.00027503  .00000561  00000-0  10463-3 0  9991","l2":"2 29479  98.0548 218.6399 0017621 172.7614 187.3849 14.68664645 59981"},{"id":"29505","name":"SHIJIAN 6 02A (SJ-6 02A)","type":"PAYLOAD","l1":"1 29505U 06046A   26203.57561476  .00009328  00000-0  47111-3 0  9990","l2":"2 29505  97.6348 244.9125 0003828  47.0030 313.1524 15.17309145 77630"},{"id":"29506","name":"SHIJIAN 6 02B (SJ-6 02B)","type":"PAYLOAD","l1":"1 29506U 06046B   26203.60166100  .00000807  00000-0  67115-4 0  9990","l2":"2 29506  97.7143 232.4403 0012526 309.4246  50.5869 15.01446195 76054"},{"id":"33053","name":"GLAST","type":"PAYLOAD","l1":"1 33053U 08029A   26203.58496965  .00002571  00000-0  89330-4 0  9990","l2":"2 33053  25.5828 318.6683 0008234  27.6613 332.4362 15.24105371  1095"},{"id":"36395","name":"SDO","type":"PAYLOAD","l1":"1 36395U 10005A   26202.19615476 -.00000097  00000-0  00000-0 0  9990","l2":"2 36395  34.7200  85.8242 0001647  43.2128 138.3850  1.00277625 60409"},{"id":"36508","name":"CRYOSAT 2","type":"PAYLOAD","l1":"1 36508U 10013A   26203.57540379  .00000057  00000-0  13481-4 0  9993","l2":"2 36508  92.0353 285.9046 0002501  98.8960 261.2530 14.51899791863211"},{"id":"37389","name":"XSAT","type":"PAYLOAD","l1":"1 37389U 11015C   26203.60892481  .00000231  00000-0  11565-3 0  9996","l2":"2 37389  98.3539 178.9494 0012840 236.8197 123.1753 14.25215689792724"},{"id":"38337","name":"GCOM W1","type":"PAYLOAD","l1":"1 38337U 12025A   26203.33912899  .00000309  00000-0  78724-4 0  9995","l2":"2 38337  98.2024 143.3630 0001275  80.3987  34.8453 14.57094429754155"},{"id":"38358","name":"NUSTAR","type":"PAYLOAD","l1":"1 38358U 12031A   26203.66668981  .00005599  00000-0  28979-3 0  9993","l2":"2 38358   6.0259 127.9367 0009226 277.1004 112.1985 15.09093193  1307"},{"id":"39089","name":"NEOSSAT","type":"PAYLOAD","l1":"1 39089U 13009D   26203.26171311  .00000113  00000-0  53849-4 0  9995","l2":"2 39089  98.4196  22.4634 0011829 137.4448 222.7657 14.35837329701779"},{"id":"39091","name":"BRITE-A TUGSAT-1","type":"PAYLOAD","l1":"1 39091U 13009F   26203.45182338  .00000130  00000-0  58610-4 0  9990","l2":"2 39091  98.4015  22.0181 0011122 130.7038 229.5117 14.36554561702112"},{"id":"39197","name":"IRIS","type":"PAYLOAD","l1":"1 39197U 13033A   26203.51820838  .00000794  00000-0  96939-4 0  9997","l2":"2 39197  97.9318  42.6838 0023845 200.2233 159.8040 14.85947122705623"},{"id":"39253","name":"SPRINT A","type":"PAYLOAD","l1":"1 39253U 13049A   26203.55345312  .00000098  00000-0  44689-4 0  9992","l2":"2 39253  29.7219  40.2038 0136946 303.4958  55.2593 13.55547197636227"},{"id":"39265","name":"CASSIOPE","type":"PAYLOAD","l1":"1 39265U 13055A   26203.55417725  .00021297 -46307-6  22832-3 0  9996","l2":"2 39265  80.9138  23.6686 0281628 302.8737  54.5674 15.27677324673061"},{"id":"39422","name":"STSAT 3","type":"PAYLOAD","l1":"1 39422U 13066G   26203.60107234  .00002545  00000-0  19393-3 0  9996","l2":"2 39422  97.6220 172.9184 0008729 275.3358  84.6872 15.02920197689520"}]}