OBJECT_NAME,OBJECT_ID,EPOCH,MEAN_MOTION,ECCENTRICITY,INCLINATION,RA_OF_ASC_NODE,ARG_OF_PERICENTER,MEAN_ANOMALY,EPHEMERIS_TYPE,CLASSIFICATION_TYPE,NORAD_CAT_ID,ELEMENT_SET_NO,REV_AT_EPOCH,BSTAR,MEAN_MOTION_DOT,MEAN_MOTION_DDOT
HST,1990-037B,2026-07-22T05:08:13.927776,15.31110914,.00020355,28.4723,201.1073,171.5650,188.4980,0,U,20580,999,79394,.17637821E-3,.5689E-4,0
POLAR,1996-013A,2026-07-21T16:44:45.559392,1.29846001,.65050128,79.9018,226.6420,207.8918,92.1658,0,U,23802,999,14530,0,.193E-5,0
SWAS,1998-071A,2026-07-22T04:45:21.910464,15.09779260,.00073281,69.8955,137.2213,222.4214,137.6385,0,U,25560,999,50255,.20760011E-3,.3257E-4,0
CXO,1999-040B,2026-07-25T09:38:07.358784,0.37796798,.77734611,56.6765,115.6641,309.9148,0.5404,0,U,25867,999,1746,0,.689E-5,0
XMM-NEWTON,1999-066A,2026-07-24T05:58:43.881600,0.50127611,.46637907,64.2866,282.5076,64.2318,0.0628,0,U,25989,999,2318,0,.48E-6,0
TERRA,1999-068A,2026-07-22T13:54:21.924288,14.61127651,.00036419,97.9436,251.7188,108.3723,57.1543,0,U,25994,999,41477,.61837359E-4,.26E-5,0
CLUSTER II-FM7 (SAMBA),2000-041A,2026-07-20T14:26:37.417344,0.44850593,.90917143,149.8020,56.9135,274.4939,359.4480,0,U,26410,999,2046,0,.10308E-3,-.3041523E-5
CLUSTER II-FM8 (TANGO),2000-045B,2026-07-21T04:54:55.733472,0.44419737,.90954359,149.9880,58.2030,275.6486,2.0940,0,U,26464,999,2046,0,.10744E-3,-.2732326E-5
ODIN,2001-007A,2026-07-22T02:18:42.187104,15.94340343,.00045746,97.3694,246.6856,165.2192,194.9218,0,U,26702,999,39492,.16232712E-2,.602498E-2,.15102514E-3
TIMED,2001-055B,2026-07-22T07:59:50.642592,14.95355508,.00023794,74.0674,164.2490,292.6522,67.4411,0,U,26998,999,33607,.87586207E-4,.927E-5,0
CORIOLIS,2003-001A,2026-07-22T00:09:48.675168,14.19953324,.00151344,98.7139,209.3614,110.9935,249.2862,0,U,27640,999,21916,.61467108E-4,.87E-6,0
SORCE,2003-004A,2026-07-22T14:27:36.620352,15.03869004,.00185808,39.9919,59.5911,304.1435,55.7597,0,U,27651,999,27723,.15773577E-3,.2065E-4,0
MOST,2003-031D,2026-07-22T11:31:11.630208,14.21328799,.0010495,98.7056,210.7147,145.0344,215.1524,0,U,27843,999,19572,.41339711E-4,.47E-6,0
SCISAT 1,2003-036A,2026-07-22T03:18:44.165952,14.81484604,.00070061,73.9301,101.9005,168.2411,191.8931,0,U,27858,999,23662,.6417372E-4,.466E-5,0
SWIFT,2004-047A,2026-07-22T12:16:52.747968,15.71818487,.00026488,20.5517,271.7026,103.4951,256.5791,0,U,28485,999,19242,.47233262E-3,.65667E-3,0
HINODE (SOLAR-B),2006-041A,2026-07-22T00:00:23.762592,14.68664645,.00176209,98.0548,218.6399,172.7614,187.3849,0,U,29479,999,5998,.104629E-3,.561E-5,0
SHIJIAN-6 02A (SJ-6 02A),2006-046A,2026-07-22T13:48:53.115264,15.17309145,.00038278,97.6348,244.9125,47.0030,313.1524,0,U,29505,999,7763,.47110599E-3,.9328E-4,0
SHIJIAN-6 02B (SJ-6 02B),2006-046B,2026-07-22T14:26:23.510400,15.01446195,.0012526,97.7143,232.4403,309.4246,50.5869,0,U,29506,999,7605,.67114618E-4,.807E-5,0
FGRST (GLAST),2008-029A,2026-07-22T14:02:21.377760,15.24105371,.0008234,25.5828,318.6683,27.6613,332.4362,0,U,33053,999,109,.89329991E-4,.2571E-4,0
SDO,2010-005A,2026-07-21T04:42:27.771264,1.00277625,.00016475,34.7200,85.8242,43.2128,138.3850,0,U,36395,999,6040,0,-.97E-6,0
CRYOSAT 2,2010-013A,2026-07-22T13:48:34.887456,14.51899791,.00025015,92.0353,285.9046,98.8960,261.2530,0,U,36508,999,86321,.13481498E-4,.57E-6,0
X-SAT,2011-015C,2026-07-22T14:36:51.103584,14.25215689,.00128403,98.3539,178.9494,236.8197,123.1753,0,U,37389,999,79272,.11565442E-3,.231E-5,0
GCOM-W1 (SHIZUKU),2012-025A,2026-07-22T08:08:20.744736,14.57094429,.00012751,98.2024,143.3630,80.3987,34.8453,0,U,38337,999,75415,.78724419E-4,.309E-5,0
NUSTAR,2012-031A,2026-07-22T16:00:01.999584,15.09093193,.00092257,6.0259,127.9367,277.1004,112.1985,0,U,38358,999,130,.28978956E-3,.5599E-4,0
NEOSSAT,2013-009D,2026-07-22T06:16:52.012704,14.35837329,.00118292,98.4196,22.4634,137.4448,222.7657,0,U,39089,999,70177,.53848724E-4,.113E-5,0
BRITE-AUSTRIA,2013-009F,2026-07-22T10:50:37.540032,14.36554561,.00111215,98.4015,22.0181,130.7038,229.5117,0,U,39091,999,70211,.586095E-4,.13E-5,0
IRIS,2013-033A,2026-07-22T12:26:13.204032,14.85947122,.00238448,97.9318,42.6838,200.2233,159.8040,0,U,39197,999,70562,.96938688E-4,.794E-5,0
HISAKI (SPRINT-A),2013-049A,2026-07-22T13:16:58.349568,13.55547197,.01369457,29.7219,40.2038,303.4958,55.2593,0,U,39253,999,63622,.44688652E-4,.98E-6,0
CASSIOPE,2013-055A,2026-07-22T13:18:00.914400,15.27677324,.02816279,80.9138,23.6686,302.8737,54.5674,0,U,39265,999,67306,.22832099E-3,.21297E-3,-.463066E-6
STSAT-3,2013-066G,2026-07-22T14:25:32.650176,15.02920197,.00087287,97.6220,172.9184,275.3358,84.6872,0,U,39422,999,68952,.19392715E-3,.2545E-4,0
